[{"OBJECT_NAME":"COSMOS 2414","OBJECT_ID":"2005-002A","EPOCH":"2026-03-09T14:50:05.809056","MEAN_MOTION":13.87915528,"ECCENTRICITY":0.0038721,"INCLINATION":82.9481,"RA_OF_ASC_NODE":118.9723,"ARG_OF_PERICENTER":252.5669,"MEAN_ANOMALY":107.1259,"EPHEMERIS_TYPE":0,"CLASSIFICATION_TYPE":"U","NORAD_CAT_ID":28521,"ELEMENT_SET_NO":999,"REV_AT_EPOCH":7000,"BSTAR":5.6357e-5,"MEAN_MOTION_DOT":8.3e-7,"MEAN_MOTION_DDOT":0},{"OBJECT_NAME":"YAOGAN-7 DEB","OBJECT_ID":"2009-069C","EPOCH":"2026-03-09T03:46:47.030592","MEAN_MOTION":14.26253888,"ECCENTRICITY":0.0236218,"INCLINATION":97.9452,"RA_OF_ASC_NODE":28.6539,"ARG_OF_PERICENTER":62.3879,"MEAN_ANOMALY":300.1074,"EPHEMERIS_TYPE":0,"CLASSIFICATION_TYPE":"U","NORAD_CAT_ID":38266,"ELEMENT_SET_NO":999,"REV_AT_EPOCH":83308,"BSTAR":0.0011719298,"MEAN_MOTION_DOT":3.733e-5,"MEAN_MOTION_DDOT":0}]
